{
  "norad_id": 54836,
  "name": "STARLINK-5384",
  "history": [
    {
      "epoch": "2026-03-28T22:00:01.999584Z",
      "apogee_km": 429.1779599620413,
      "perigee_km": 426.8408654068544,
      "latitude_deg": -14.52033890880928,
      "longitude_deg": -152.51751589352406,
      "height_km": 430.5361190091049,
      "semi_major_axis_km": 6806.146412684448,
      "eccentricity": 0.00017169,
      "inclination_deg": 43.0007,
      "raan_deg": 19.8539,
      "arg_perigee_deg": 260.7044,
      "mean_anomaly_deg": 77.9137,
      "mean_motion_rev_day": 15.46147174
    },
    {
      "epoch": "2026-03-29T04:00:01.999584Z",
      "apogee_km": 428.9366968935301,
      "perigee_km": 426.63765570677606,
      "latitude_deg": -39.428268584694344,
      "longitude_deg": 70.55641048315744,
      "height_km": 438.4937116365575,
      "semi_major_axis_km": 6805.924176300153,
      "eccentricity": 0.0001689,
      "inclination_deg": 43.0007,
      "raan_deg": 18.4025,
      "arg_perigee_deg": 273.5595,
      "mean_anomaly_deg": 18.3282,
      "mean_motion_rev_day": 15.46222905
    },
    {
      "epoch": "2026-03-30T04:00:01.999584Z",
      "apogee_km": 428.16872933152536,
      "perigee_km": 425.8495355295936,
      "latitude_deg": 41.24738562381251,
      "longitude_deg": -124.223438650028,
      "height_km": 430.8507199869252,
      "semi_major_axis_km": 6805.146132430559,
      "eccentricity": 0.0001704,
      "inclination_deg": 43.0007,
      "raan_deg": 12.5918,
      "arg_perigee_deg": 270.6222,
      "mean_anomaly_deg": 194.8577,
      "mean_motion_rev_day": 15.46488086
    },
    {
      "epoch": "2026-03-30T06:00:02.000160Z",
      "apogee_km": 428.18201013942235,
      "perigee_km": 425.73516996906164,
      "latitude_deg": -20.076154171007992,
      "longitude_deg": -62.60763554093735,
      "height_km": 430.8294338192345,
      "semi_major_axis_km": 6805.095590054241,
      "eccentricity": 0.00017978,
      "inclination_deg": 43.0007,
      "raan_deg": 12.1071,
      "arg_perigee_deg": 271.6063,
      "mean_anomaly_deg": 298.3827,
      "mean_motion_rev_day": 15.46505315
    },
    {
      "epoch": "2026-03-30T14:00:03.000384Z",
      "apogee_km": 427.845002192993,
      "perigee_km": 425.3205872435483,
      "latitude_deg": -43.13288171679163,
      "longitude_deg": -120.32558831128904,
      "height_km": 438.65057165486934,
      "semi_major_axis_km": 6804.71979471827,
      "eccentricity": 0.00018549,
      "inclination_deg": 43.001,
      "raan_deg": 10.1661,
      "arg_perigee_deg": 262.4101,
      "mean_anomaly_deg": 5.7508,
      "mean_motion_rev_day": 15.46633427
    },
    {
      "epoch": "2026-03-30T22:00:00.999936Z",
      "apogee_km": 427.1968644157878,
      "perigee_km": 424.88358024373974,
      "latitude_deg": -22.41155459824962,
      "longitude_deg": -176.16430665422612,
      "height_km": 430.65315430604375,
      "semi_major_axis_km": 6804.177222329763,
      "eccentricity": 0.00016999,
      "inclination_deg": 43.0005,
      "raan_deg": 8.2315,
      "arg_perigee_deg": 268.6411,
      "mean_anomaly_deg": 57.6209,
      "mean_motion_rev_day": 15.46818426
    },
    {
      "epoch": "2026-03-31T20:00:01.999008Z",
      "apogee_km": 424.74341308829844,
      "perigee_km": 422.63484698798675,
      "latitude_deg": 24.765616875113004,
      "longitude_deg": -96.84783469032155,
      "height_km": 424.1743899572651,
      "semi_major_axis_km": 6801.826130038143,
      "eccentricity": 0.000155,
      "inclination_deg": 43.0008,
      "raan_deg": 2.8964,
      "arg_perigee_deg": 268.9116,
      "mean_anomaly_deg": 128.8212,
      "mean_motion_rev_day": 15.47620496
    },
    {
      "epoch": "2026-04-01T20:00:01.999008Z",
      "apogee_km": 423.42424523910995,
      "perigee_km": 420.98428279358086,
      "latitude_deg": -24.259962955331215,
      "longitude_deg": 75.59840612474348,
      "height_km": 427.20465963658137,
      "semi_major_axis_km": 6800.341264016345,
      "eccentricity": 0.0001794,
      "inclination_deg": 43.0008,
      "raan_deg": 357.0736,
      "arg_perigee_deg": 260.8726,
      "mean_anomaly_deg": 315.9064,
      "mean_motion_rev_day": 15.48127412
    },
    {
      "epoch": "2026-04-02T20:00:01.999008Z",
      "apogee_km": 422.5325666718254,
      "perigee_km": 420.03853847953997,
      "latitude_deg": 24.503204826449146,
      "longitude_deg": -110.85619566519813,
      "height_km": 421.9804230376187,
      "semi_major_axis_km": 6799.422552575682,
      "eccentricity": 0.0001834,
      "inclination_deg": 43.0005,
      "raan_deg": 351.2473,
      "arg_perigee_deg": 260.9276,
      "mean_anomaly_deg": 136.3657,
      "mean_motion_rev_day": 15.48441188
    },
    {
      "epoch": "2026-04-02T22:00:01.999584Z",
      "apogee_km": 422.49702837294353,
      "perigee_km": 419.9862898092879,
      "latitude_deg": 24.700731856112675,
      "longitude_deg": -19.87798965681688,
      "height_km": 421.71894505674175,
      "semi_major_axis_km": 6799.378659091116,
      "eccentricity": 0.00018463,
      "inclination_deg": 43.0003,
      "raan_deg": 350.7622,
      "arg_perigee_deg": 264.157,
      "mean_anomaly_deg": 238.2227,
      "mean_motion_rev_day": 15.48456182
    },
    {
      "epoch": "2026-04-03T20:00:01.999008Z",
      "apogee_km": 421.4618376055005,
      "perigee_km": 418.800995347292,
      "latitude_deg": -25.484014770374138,
      "longitude_deg": 63.797050588840044,
      "height_km": 425.51854648823956,
      "semi_major_axis_km": 6798.268416476396,
      "eccentricity": 0.0001957,
      "inclination_deg": 42.9998,
      "raan_deg": 345.4177,
      "arg_perigee_deg": 264.5986,
      "mean_anomaly_deg": 314.2421,
      "mean_motion_rev_day": 15.48835521
    },
    {
      "epoch": "2026-04-04T06:00:02.000160Z",
      "apogee_km": 420.5788402834396,
      "perigee_km": 417.971624847517,
      "latitude_deg": 16.83260879880531,
      "longitude_deg": 79.22674597685855,
      "height_km": 418.9196108569739,
      "semi_major_axis_km": 6797.412232565478,
      "eccentricity": 0.00019178,
      "inclination_deg": 42.9999,
      "raan_deg": 342.9859,
      "arg_perigee_deg": 271.9289,
      "mean_anomaly_deg": 113.1073,
      "mean_motion_rev_day": 15.49128161
    },
    {
      "epoch": "2026-04-05T14:00:03.000384Z",
      "apogee_km": 418.7851123793753,
      "perigee_km": 416.0103596359677,
      "latitude_deg": -43.13456354617485,
      "longitude_deg": -156.3203676133627,
      "height_km": 429.35553653403,
      "semi_major_axis_km": 6795.534736007671,
      "eccentricity": 0.00020416,
      "inclination_deg": 42.9998,
      "raan_deg": 335.1993,
      "arg_perigee_deg": 261.2114,
      "mean_anomaly_deg": 10.5286,
      "mean_motion_rev_day": 15.49770204
    },
    {
      "epoch": "2026-04-05T20:00:03.000384Z",
      "apogee_km": 418.43976303807995,
      "perigee_km": 415.7814621720281,
      "latitude_deg": -30.750517614628425,
      "longitude_deg": 58.97543520862463,
      "height_km": 424.3360888603627,
      "semi_major_axis_km": 6795.247612605053,
      "eccentricity": 0.0001956,
      "inclination_deg": 42.9998,
      "raan_deg": 333.7414,
      "arg_perigee_deg": 264.3526,
      "mean_anomaly_deg": 323.8895,
      "mean_motion_rev_day": 15.4986843
    },
    {
      "epoch": "2026-04-06T06:00:02.000160Z",
      "apogee_km": 418.11281601758765,
      "perigee_km": 415.25274047652783,
      "latitude_deg": 23.64737835621271,
      "longitude_deg": 74.58933921152027,
      "height_km": 417.2330685613218,
      "semi_major_axis_km": 6794.819778247058,
      "eccentricity": 0.00021046,
      "inclination_deg": 42.9999,
      "raan_deg": 331.3053,
      "arg_perigee_deg": 269.0104,
      "mean_anomaly_deg": 126.8579,
      "mean_motion_rev_day": 15.50014813
    },
    {
      "epoch": "2026-04-07T14:00:01.999872Z",
      "apogee_km": 415.38406303505417,
      "perigee_km": 412.84226717826823,
      "latitude_deg": -40.938337846642185,
      "longitude_deg": -150.02934427601141,
      "height_km": 425.3066531385775,
      "semi_major_axis_km": 6792.250165106661,
      "eccentricity": 0.00018711,
      "inclination_deg": 42.9994,
      "raan_deg": 323.5077,
      "arg_perigee_deg": 270.927,
      "mean_anomaly_deg": 15.8188,
      "mean_motion_rev_day": 15.50894488
    },
    {
      "epoch": "2026-04-07T20:00:00.999360Z",
      "apogee_km": 414.5965842681062,
      "perigee_km": 412.0022555556998,
      "latitude_deg": -38.11594714973872,
      "longitude_deg": 62.72852053502366,
      "height_km": 423.3545355405058,
      "semi_major_axis_km": 6791.436419911903,
      "eccentricity": 0.000191,
      "inclination_deg": 42.9995,
      "raan_deg": 322.0484,
      "arg_perigee_deg": 266.6644,
      "mean_anomaly_deg": 337.7121,
      "mean_motion_rev_day": 15.51173237
    },
    {
      "epoch": "2026-04-08T16:00:01.999584Z",
      "apogee_km": 412.08162576047835,
      "perigee_km": 409.68116463630395,
      "latitude_deg": -29.064062181157006,
      "longitude_deg": 96.57712989091375,
      "height_km": 417.5947909192444,
      "semi_major_axis_km": 6789.018395198391,
      "eccentricity": 0.00017679,
      "inclination_deg": 42.9996,
      "raan_deg": 317.164,
      "arg_perigee_deg": 263.9965,
      "mean_anomaly_deg": 321.1181,
      "mean_motion_rev_day": 15.52002026
    },
    {
      "epoch": "2026-04-09T20:00:01.999008Z",
      "apogee_km": 407.6487492085089,
      "perigee_km": 405.71914613099216,
      "latitude_deg": -42.98450814976117,
      "longitude_deg": 88.56013923046548,
      "height_km": 418.99638625308125,
      "semi_major_axis_km": 6784.82094766975,
      "eccentricity": 0.0001422,
      "inclination_deg": 42.9994,
      "raan_deg": 310.3191,
      "arg_perigee_deg": 262.9349,
      "mean_anomaly_deg": 11.7056,
      "mean_motion_rev_day": 15.53442474
    }
  ]
}